QIANFAN-1               
1 60379U 24140A   25342.24875596  .00000132  00000+0  18539-3 0  9992
2 60379  88.9754 299.7450 0015810 224.5879 135.4001 13.50976985 66746
QIANFAN-2               
1 60380U 24140B   25342.27776400  .00000122  00000+0  17006-3 0  9998
2 60380  88.9741 299.5820 0011817 192.2280 167.8587 13.50980582 66806
QIANFAN-3               
1 60381U 24140C   25342.28592997  .00000131  00000+0  18411-3 0  9998
2 60381  88.9733 299.7141 0012574 206.5591 153.4918 13.50981137 66717
QIANFAN-4               
1 60382U 24140D   25342.26110978  .00000109  00000+0  15018-3 0  9997
2 60382  88.9758 299.6132 0011964 195.2745 164.8047 13.50981301 66836
QIANFAN-5               
1 60383U 24140E   25342.31060996  .00000130  00000+0  18206-3 0  9994
2 60383  88.9733 299.7370 0013574 219.4715 140.5448 13.50978854 66701
QIANFAN-6               
1 60384U 24140F   25342.25714038  .00000116  00000+0  16096-3 0  9990
2 60384  88.9759 299.4875 0011915 201.7715 158.2931 13.50979247 66898
QIANFAN-7               
1 60385U 24140G   25342.25891619  .00001221  00000+0  48939-3 0  9991
2 60385  88.9776 294.2471 0017219  58.7300 301.5578 14.27640124 69758
QIANFAN-8               
1 60386U 24140H   25342.26539129  .00000128  00000+0  18029-3 0  9990
2 60386  88.9761 299.7241 0015292 205.6961 154.3432 13.50977242 66741
